[Satellite]
VERSION=1.1
NAME=DIAMOND GREEN
NICKNAME=DIAMOND GREEN
TLE1=1 42785U 17036W   22342.34484387  .00016044  00000+0  53707-3 0  9996
TLE2=2 42785  97.1788  17.3768 0011264  75.0762 285.1726 15.30971847303586
STATUS=0
